[{"OBJECT_NAME":"STARLINK-5497","OBJECT_ID":"2023-021B","EPOCH":"2026-03-09T19:27:49.992192","MEAN_MOTION":14.98328534,"ECCENTRICITY":0.00018526,"INCLINATION":70.0001,"RA_OF_ASC_NODE":204.2603,"ARG_OF_PERICENTER":277.321,"MEAN_ANOMALY":82.7738,"EPHEMERIS_TYPE":0,"CLASSIFICATION_TYPE":"U","NORAD_CAT_ID":55629,"ELEMENT_SET_NO":999,"REV_AT_EPOCH":16831,"BSTAR":0.0002680748,"MEAN_MOTION_DOT":3.107e-5,"MEAN_MOTION_DDOT":0},{"OBJECT_NAME":"CZ-6A DEB","OBJECT_ID":"2022-151VS","EPOCH":"2026-03-09T04:51:15.060960","MEAN_MOTION":14.9137966,"ECCENTRICITY":0.00559122,"INCLINATION":98.6335,"RA_OF_ASC_NODE":146.9052,"ARG_OF_PERICENTER":180.6585,"MEAN_ANOMALY":179.4567,"EPHEMERIS_TYPE":0,"CLASSIFICATION_TYPE":"U","NORAD_CAT_ID":55201,"ELEMENT_SET_NO":999,"REV_AT_EPOCH":17149,"BSTAR":0.0042126159,"MEAN_MOTION_DOT":0.00043496,"MEAN_MOTION_DDOT":0}]
